LEMUR-2-ARTFISCHER      
1 42881U 17042BJ  17345.79490288  .00004588  00000-0  13894-3 0  9997
2 42881  96.9971 246.9246 0015397  64.1866 296.0964 15.34520251 22867
